STARLINK-1747
1 26569C 20070AP  21325.16909085  .00000046  00000-0  30759-5 0  3252
2 26569  53.0537   2.4694 0001328  65.0258 318.7249 15.06405185    10
